NORAD_CAT_ID,OBJECT_NAME,OBJECT_TYPE,EPOCH,MEAN_MOTION,ECCENTRICITY,INCLINATION,RA_OF_ASC_NODE,ARG_OF_PERICENTER,MEAN_ANOMALY,BSTAR,MEAN_MOTION_DOT,MEAN_MOTION_DDOT,TLE_LINE0,TLE_LINE1,TLE_LINE2,SEMIMAJOR_AXIS,PERIOD,APOGEE,PERIGEE,DECAYED
53250.0,STARLINK-4059,PAYLOAD,2023-01-09 11:40:29,15.0882934,0.0001496999999999,53.215,340.0397,53.8733,306.2398,-0.00012816,-2.326e-05,0.0,0 STARLINK-4059,1 53250U 22086J   23009.48645272 -.00002326  00000-0 -12816-3 0  9991,2 53250  53.2150 340.0397 0001497  53.8733 306.2398 15.08829340 26682,6917.913000000001,95.438,540.814,538.742,0.0
53250.0,STARLINK-4059,PAYLOAD,2023-01-09 14:51:16,15.08824964,0.0001281,53.2167,339.4461,58.0973,302.0144,-0.00011112,-2.055e-05,0.0,0 STARLINK-4059,1 53250U 22086J   23009.61893690 -.00002055  00000-0 -11112-3 0  9992,2 53250  53.2167 339.4461 0001281  58.0973 302.0144 15.08824964 26509,6917.926,95.439,540.678,538.905,0.0
53250.0,STARLINK-4059,PAYLOAD,2023-01-10 06:45:07,15.08840226,0.0001647,53.2138,336.4728,61.6247,298.4911,0.0010296,0.00016136,0.0,0 STARLINK-4059,1 53250U 22086J   23010.28134137  .00016136  00000-0  10296-2 0  9995,2 53250  53.2138 336.4728 0001647  61.6247 298.4911 15.08840226 26600,6917.88,95.438,540.884,538.605,0.0
53250.0,STARLINK-4059,PAYLOAD,2023-01-10 14:42:03,15.08864364,0.000166,53.2138,334.9855,61.5539,298.562,0.0015784,0.00024938,0.0,0 STARLINK-4059,1 53250U 22086J   23010.61253702  .00024938  00000-0  15784-2 0  9998,2 53250  53.2138 334.9855 0001660  61.5539 298.5620 15.08864364 26654,6917.806,95.436,540.819,538.523,0.0
53250.0,STARLINK-4059,PAYLOAD,2023-01-11 05:00:30,15.08860648,0.0001322,53.2142,332.3072,77.3793,282.7347,0.00059055,9.128e-05,0.0,0 STARLINK-4059,1 53250U 22086J   23011.20868882  .00009128  00000-0  59055-3 0  9999,2 53250  53.2142 332.3072 0001322  77.3793 282.7347 15.08860648 26746,6917.816999999999,95.436,540.597,538.768,0.0
53250.0,STARLINK-4059,PAYLOAD,2023-01-11 16:08:13,15.08839702,0.0001658,53.2131,330.2273,76.0925,284.0252,-9.5825e-05,-1.813e-05,0.0,0 STARLINK-4059,1 53250U 22086J   23011.67237471 -.00001813  00000-0 -95825-4 0  9995,2 53250  53.2131 330.2273 0001658  76.0925 284.0252 15.08839702 26814,6917.880999999999,95.438,540.893,538.599,0.0
53250.0,STARLINK-4059,PAYLOAD,2023-01-11 20:54:22,15.08831519,0.0001673,53.2137,329.3347,72.043,288.0744,-0.00024836,-4.238e-05,0.0,0 STARLINK-4059,1 53250U 22086J   23011.87109850 -.00004238  00000-0 -24836-3 0  9993,2 53250  53.2137 329.3347 0001673  72.0430 288.0744 15.08831519 27049,6917.906,95.438,540.929,538.614,0.0
53250.0,STARLINK-4059,PAYLOAD,2023-01-12 14:23:37,15.08846143,0.0001652,53.2141,326.0633,80.0042,280.1136,0.0017874,0.00028278,0.0,0 STARLINK-4059,1 53250U 22086J   23012.59974428  .00028278  00000-0  17874-2 0  9995,2 53250  53.2141 326.0633 0001652  80.0042 280.1136 15.08846143 27150,6917.861999999999,95.437,540.869,538.5840000000002,0.0
53250.0,STARLINK-4059,PAYLOAD,2023-01-12 23:55:56,15.08839718,0.0001441999999999,53.215,324.2784,86.6791,273.4366,0.00099512,0.00015585,0.0,0 STARLINK-4059,1 53250U 22086J   23012.99718520  .00015585  00000-0  99512-3 0  9995,2 53250  53.2150 324.2784 0001442  86.6791 273.4366 15.08839718 27012,6917.880999999999,95.438,540.744,538.749,0.0
53250.0,STARLINK-4059,PAYLOAD,2023-01-13 03:06:43,15.088454,0.0001688,53.2152,323.6828,91.7436,268.3749,0.0007542,0.00011737,0.0,0 STARLINK-4059,1 53250U 22086J   23013.12966482  .00011737  00000-0  75420-3 0  9990,2 53250  53.2152 323.6828 0001688  91.7436 268.3749 15.08845400 27238,6917.8640000000005,95.437,540.8969999999999,538.561,0.0
53250.0,STARLINK-4059,PAYLOAD,2023-01-14 06:08:15,15.0886557,0.0001565999999999,53.2138,318.6286,92.0112,268.1059,0.00083397,0.00013019,0.0,0 STARLINK-4059,1 53250U 22086J   23014.25573886  .00013019  00000-0  83397-3 0  9994,2 53250  53.2138 318.6286 0001566  92.0112 268.1059 15.08865570 27203,6917.802,95.436,540.751,538.5840000000001,0.0
53250.0,STARLINK-4059,PAYLOAD,2023-01-14 20:26:44,15.08851236,0.0002254,53.2152,315.9503,95.9512,264.1737,0.00036163,5.474e-05,0.0,0 STARLINK-4059,1 53250U 22086J   23014.85190004  .00005474  00000-0  36163-3 0  9992,2 53250  53.2152 315.9503 0002254  95.9512 264.1737 15.08851236 27294,6917.846,95.437,541.27,538.1519999999999,0.0
53250.0,STARLINK-4059,PAYLOAD,2023-01-15 05:59:02,15.08854068,0.0001786,53.2136,314.1686,84.2237,275.8958,0.00053987,8.318e-05,0.0,0 STARLINK-4059,1 53250U 22086J   23015.24933812  .00008318  00000-0  53987-3 0  9991,2 53250  53.2136 314.1686 0001786  84.2237 275.8958 15.08854068 27552,6917.837,95.437,540.938,538.467,0.0
53250.0,STARLINK-4059,PAYLOAD,2023-01-16 02:39:03,15.08872709,0.0001209,53.2142,310.3028,78.9233,281.1895,0.0015128,0.00023892,0.0,0 STARLINK-4059,1 53250U 22086J   23016.11045353  .00023892  00000-0  15128-2 0  9990,2 53250  53.2142 310.3028 0001209  78.9233 281.1895 15.08872709 27487,6917.78,95.435,540.482,538.809,0.0
53250.0,STARLINK-4059,PAYLOAD,2023-01-16 20:08:18,15.08829926,0.0001226,53.2138,307.0308,58.607,301.5042,0.00015021,2.103e-05,0.0,0 STARLINK-4059,1 53250U 22086J   23016.83910092  .00002103  00000-0  15021-3 0  9995,2 53250  53.2138 307.0308 0001226  58.6070 301.5042 15.08829926 27595,6917.911,95.438,540.624,538.928,0.0
53250.0,STARLINK-4059,PAYLOAD,2023-01-17 12:02:11,15.08808629,0.0001431999999999,53.2134,304.0566,53.6137,306.4987,-0.00014514,-2.595e-05,0.0,0 STARLINK-4059,1 53250U 22086J   23017.50151787 -.00002595  00000-0 -14514-3 0  9991,2 53250  53.2134 304.0566 0001432  53.6137 306.4987 15.08808629 27692,6917.976,95.44,540.832,538.851,0.0
53250.0,STARLINK-4059,PAYLOAD,2023-01-18 05:31:26,15.08841469,0.0001558,53.2139,300.7847,51.5263,308.5869,0.0014894,0.00023496,0.0,0 STARLINK-4059,1 53250U 22086J   23018.23016727  .00023496  00000-0  14894-2 0  9997,2 53250  53.2139 300.7847 0001558  51.5263 308.5869 15.08841469 27802,6917.876,95.437,540.819,538.663,0.0
53250.0,STARLINK-4059,PAYLOAD,2023-01-18 11:52:58,15.08863932,0.00013,53.2126,299.5969,53.3408,306.7704,0.0020523,0.00032547,0.0,0 STARLINK-4059,1 53250U 22086J   23018.49512349  .00032547  00000-0  20523-2 0  9999,2 53250  53.2126 299.5969 0001300  53.3408 306.7704 15.08863932 28048,6917.807,95.436,540.572,538.773,0.0
53250.0,STARLINK-4059,PAYLOAD,2023-01-19 03:46:48,15.08912264,0.0001405,53.2129,296.6223,57.5175,302.5953,0.0023936,0.00038088,0.0,0 STARLINK-4059,1 53250U 22086J   23019.15750257  .00038088  00000-0  23936-2 0  9992,2 53250  53.2129 296.6223 0001405  57.5175 302.5953 15.08912264 28149,6917.66,95.433,540.496,538.553,0.0
53250.0,STARLINK-4059,PAYLOAD,2023-01-19 18:05:16,15.08846081,6.14e-05,53.2131,293.9461,105.662,254.444,0.00033066,4.98e-05,0.0,0 STARLINK-4059,1 53250U 22086J   23019.75366534  .00004980  00000-0  33066-3 0  9999,2 53250  53.2131 293.9461 0000614 105.6620 254.4440 15.08846081 28034,6917.861999999999,95.437,540.1519999999999,539.302,0.0
53250.0,STARLINK-4059,PAYLOAD,2023-01-20 11:34:31,15.08850554,7.4e-05,53.2146,290.6746,92.4036,267.7041,0.0014398,0.00022707,0.0,0 STARLINK-4059,1 53250U 22086J   23020.48231120  .00022707  00000-0  14398-2 0  9996,2 53250  53.2146 290.6746 0000740  92.4036 267.7041 15.08850554 28140,6917.848000000001,95.437,540.225,539.201,0.0
53250.0,STARLINK-4059,PAYLOAD,2023-01-20 17:56:05,15.08817322,0.0003819999999999,53.2129,289.486,94.2677,265.8751,0.0012225,0.00019211,0.0,0 STARLINK-4059,1 53250U 22086J   23020.74728914  .00019211  00000-0  12225-2 0  9990,2 53250  53.2129 289.4860 0003820  94.2677 265.8751 15.08817322 28184,6917.95,95.439,542.457,537.172,0.0
53250.0,STARLINK-4059,PAYLOAD,2023-01-21 03:28:25,15.08792693,0.0001042,53.2146,287.6993,101.9222,258.1887,8.398e-05,1.047e-05,0.0,0 STARLINK-4059,1 53250U 22086J   23021.14474349  .00001047  00000-0  83980-4 0  9991,2 53250  53.2146 287.6993 0001042 101.9222 258.1887 15.08792693 28241,6918.025,95.441,540.611,539.169,0.0
53250.0,STARLINK-4059,PAYLOAD,2023-01-22 03:19:10,15.08899102,0.0001729,53.214,283.2417,71.4802,288.6378,0.0016145,0.00025542,0.0,0 STARLINK-4059,1 53250U 22086J   23022.13831646  .00025542  00000-0  16145-2 0  9991,2 53250  53.2140 283.2417 0001729  71.4802 288.6378 15.08899102 28397,6917.7,95.434,540.761,538.369,0.0
53250.0,STARLINK-4059,PAYLOAD,2023-01-22 17:37:38,15.08825021,0.0001453,53.2155,280.5635,105.0356,255.0797,0.00057748,8.911e-05,0.0,0 STARLINK-4059,1 53250U 22086J   23022.73447778  .00008911  00000-0  57748-3 0  9992,2 53250  53.2155 280.5635 0001453 105.0356 255.0797 15.08825021 28489,6917.926,95.439,540.7959999999999,538.786,0.0
53250.0,STARLINK-4059,PAYLOAD,2023-01-23 01:34:34,15.08856909,0.0001664,53.2149,279.0799,97.1091,263.0091,-0.00030709,-5.174e-05,0.0,0 STARLINK-4059,1 53250U 22086J   23023.06567658 -.00005174  00000-0 -30709-3 0  9997,2 53250  53.2149 279.0799 0001664  97.1091 263.0091 15.08856909 28538,6917.829000000001,95.436,540.845,538.543,0.0
53250.0,STARLINK-4059,PAYLOAD,2023-01-24 03:00:45,15.08834849,0.0001539,53.214,274.318,103.2394,256.877,0.00053387,8.218e-05,0.0,0 STARLINK-4059,1 53250U 22086J   23024.12552101  .00008218  00000-0  53387-3 0  9999,2 53250  53.2140 274.3180 0001539 103.2394 256.8770 15.08834849 28697,6917.896,95.438,540.826,538.696,0.0
53250.0,STARLINK-4059,PAYLOAD,2023-01-25 09:13:04,15.08844422,0.0001372,53.2132,268.668,90.7791,269.3358,0.00015156,2.125e-05,0.0,0 STARLINK-4059,1 53250U 22086J   23025.38407807  .00002125  00000-0  15156-3 0  9993,2 53250  53.2132 268.6680 0001372  90.7791 269.3358 15.08844422 28885,6917.866999999999,95.437,540.681,538.783,0.0
53250.0,STARLINK-4059,PAYLOAD,2023-01-26 01:06:55,15.08842739,0.0001347,53.2131,265.6934,90.0044,270.1102,0.00011577,1.555e-05,0.0,0 STARLINK-4059,1 53250U 22086J   23026.04647991  .00001555  00000-0  11577-3 0  9996,2 53250  53.2131 265.6934 0001347  90.0044 270.1102 15.08842739 29189,6917.871999999999,95.437,540.669,538.805,0.0
